[{"OBJECT_NAME":"ONEWEB-0701","OBJECT_ID":"2024-188P","EPOCH":"2025-11-30T13:14:13.709184","MEAN_MOTION":13.10373713,"ECCENTRICITY":0.00017813,"INCLINATION":87.8818,"RA_OF_ASC_NODE":75.8581,"ARG_OF_PERICENTER":75.0827,"MEAN_ANOMALY":285.0497,"EPHEMERIS_TYPE":0,"CLASSIFICATION_TYPE":"U","NORAD_CAT_ID":61607,"ELEMENT_SET_NO":999,"REV_AT_EPOCH":5729,"BSTAR":-0.0017957062,"MEAN_MOTION_DOT":-6.14e-6,"MEAN_MOTION_DDOT":0},{"OBJECT_NAME":"ONEWEB-0702","OBJECT_ID":"2024-188Q","EPOCH":"2025-11-30T11:53:19.629312","MEAN_MOTION":13.11419698,"ECCENTRICITY":0.00015636,"INCLINATION":87.882,"RA_OF_ASC_NODE":60.5454,"ARG_OF_PERICENTER":64.8054,"MEAN_ANOMALY":295.3236,"EPHEMERIS_TYPE":0,"CLASSIFICATION_TYPE":"U","NORAD_CAT_ID":61608,"ELEMENT_SET_NO":999,"REV_AT_EPOCH":5844,"BSTAR":-0.0012135533,"MEAN_MOTION_DOT":-4.17e-6,"MEAN_MOTION_DDOT":0},{"OBJECT_NAME":"ONEWEB-0704","OBJECT_ID":"2024-188R","EPOCH":"2025-11-30T12:57:29.769696","MEAN_MOTION":13.1037157,"ECCENTRICITY":0.00013789,"INCLINATION":87.8825,"RA_OF_ASC_NODE":75.8238,"ARG_OF_PERICENTER":67.0968,"MEAN_ANOMALY":293.0305,"EPHEMERIS_TYPE":0,"CLASSIFICATION_TYPE":"U","NORAD_CAT_ID":61609,"ELEMENT_SET_NO":999,"REV_AT_EPOCH":5727,"BSTAR":-0.0015238377,"MEAN_MOTION_DOT":-5.19e-6,"MEAN_MOTION_DDOT":0},{"OBJECT_NAME":"ONEWEB-0705","OBJECT_ID":"2024-188S","EPOCH":"2025-11-30T13:04:39.976896","MEAN_MOTION":13.1037436,"ECCENTRICITY":4.977e-5,"INCLINATION":87.8815,"RA_OF_ASC_NODE":75.846,"ARG_OF_PERICENTER":99.7838,"MEAN_ANOMALY":260.3346,"EPHEMERIS_TYPE":0,"CLASSIFICATION_TYPE":"U","NORAD_CAT_ID":61610,"ELEMENT_SET_NO":999,"REV_AT_EPOCH":4944,"BSTAR":-0.0019586592,"MEAN_MOTION_DOT":-6.71e-6,"MEAN_MOTION_DDOT":0},{"OBJECT_NAME":"ONEWEB-0706","OBJECT_ID":"2024-188T","EPOCH":"2025-11-30T12:43:09.630048","MEAN_MOTION":13.10368969,"ECCENTRICITY":0.00011912,"INCLINATION":87.8807,"RA_OF_ASC_NODE":75.8712,"ARG_OF_PERICENTER":83.908,"MEAN_ANOMALY":276.2183,"EPHEMERIS_TYPE":0,"CLASSIFICATION_TYPE":"U","NORAD_CAT_ID":61611,"ELEMENT_SET_NO":999,"REV_AT_EPOCH":5736,"BSTAR":-0.00055986588,"MEAN_MOTION_DOT":-1.83e-6,"MEAN_MOTION_DDOT":0},{"OBJECT_NAME":"ONEWEB-0707","OBJECT_ID":"2024-188U","EPOCH":"2025-11-30T12:52:42.362688","MEAN_MOTION":13.10367942,"ECCENTRICITY":0.0001233,"INCLINATION":87.8822,"RA_OF_ASC_NODE":75.8459,"ARG_OF_PERICENTER":82.6173,"MEAN_ANOMALY":277.5094,"EPHEMERIS_TYPE":0,"CLASSIFICATION_TYPE":"U","NORAD_CAT_ID":61612,"ELEMENT_SET_NO":999,"REV_AT_EPOCH":5730,"BSTAR":-0.0013773655,"MEAN_MOTION_DOT":-4.68e-6,"MEAN_MOTION_DDOT":0},{"OBJECT_NAME":"ONEWEB-0708","OBJECT_ID":"2024-188V","EPOCH":"2025-11-30T13:19:01.016832","MEAN_MOTION":13.1037662,"ECCENTRICITY":0.00011171,"INCLINATION":87.8812,"RA_OF_ASC_NODE":75.8787,"ARG_OF_PERICENTER":119.2455,"MEAN_ANOMALY":240.8784,"EPHEMERIS_TYPE":0,"CLASSIFICATION_TYPE":"U","NORAD_CAT_ID":61613,"ELEMENT_SET_NO":999,"REV_AT_EPOCH":5728,"BSTAR":-0.001241327,"MEAN_MOTION_DOT":-4.21e-6,"MEAN_MOTION_DDOT":0}]
